FORMOSAT 7-6            
1 44353U 19036Q   26087.86924889  .00003472  00000+0  27492-3 0  9997
2 44353  23.9973 150.9656 0000772 225.4280 134.6158 14.96140462369772
